start=new Date('2021-08-27T00:00:00.000Z').valueOf();
sats=[{"EPOCH":"2021-08-26T22:00:03.000096","MEAN_MOTION_DOT":"-0.00029647","DECAY_DATE":null,"OBJECT_TYPE":"PAYLOAD","GP_ID":"183498483","MEAN_ANOMALY":"206.6451","SITE":"AFETR","FILE":"3103480","ECCENTRICITY":"0.00009480","ARG_OF_PERICENTER":"114.5957","NORAD_CAT_ID":"48640","ELEMENT_SET_NO":"999","MEAN_MOTION_DDOT":"0.0000000000000","REF_FRAME":"TEME","RCS_SIZE":"LARGE","CLASSIFICATION_TYPE":"U","TLE_LINE2":"2 48640  53.0545 349.6566 0000948 114.5957 206.6451 15.06412417  3578","PERIOD":"95.591","APOAPSIS":"547.832","EPHEMERIS_TYPE":"0","TLE_LINE1":"1 48640U 21044C   21238.91670139 -.00029647  00000-0 -19791-2 0  9994","MEAN_ELEMENT_THEORY":"SGP4","LAUNCH_DATE":"2021-05-26","SEMIMAJOR_AXIS":"6925.311","OBJECT_ID":"2021-044C","TIME_SYSTEM":"UTC","REV_AT_EPOCH":"357","BSTAR":"-0.00197910000000","OBJECT_NAME":"STARLINK-2736","INCLINATION":"53.0545","COUNTRY_CODE":"US","MEAN_MOTION":"15.06412417","PERIAPSIS":"546.519","CENTER_NAME":"EARTH","RA_OF_ASC_NODE":"349.6566"},{"BSTAR":"0.00008122700000","REV_AT_EPOCH":"1410","TIME_SYSTEM":"UTC","OBJECT_ID":"2021-044D","COUNTRY_CODE":"US","INCLINATION":"53.0568","OBJECT_NAME":"STARLINK-2754","CENTER_NAME":"EARTH","PERIAPSIS":"546.354","MEAN_MOTION":"15.06392457","RA_OF_ASC_NODE":"355.9416","OBJECT_TYPE":"PAYLOAD","DECAY_DATE":null,"MEAN_MOTION_DOT":"0.00000928","EPOCH":"2021-08-26T15:09:05.567616","MEAN_MOTION_DDOT":"0.0000000000000","ELEMENT_SET_NO":"999","NORAD_CAT_ID":"48641","ARG_OF_PERICENTER":"119.2029","ECCENTRICITY":"0.00012740","FILE":"3103480","SITE":"AFETR","GP_ID":"183499010","MEAN_ANOMALY":"240.9088","EPHEMERIS_TYPE":"0","APOAPSIS":"548.119","PERIOD":"95.593","TLE_LINE2":"2 48641  53.0568 355.9416 0001274 119.2029 240.9088 15.06392457 14102","CLASSIFICATION_TYPE":"U","RCS_SIZE":"LARGE","REF_FRAME":"TEME","SEMIMAJOR_AXIS":"6925.372","LAUNCH_DATE":"2021-05-26","TLE_LINE1":"1 48641U 21044D   21238.63131444  .00000928  00000-0  81227-4 0  9999","MEAN_ELEMENT_THEORY":"SGP4"},{"OBJECT_NAME":"STARLINK-2646","INCLINATION":"53.0560","COUNTRY_CODE":"US","OBJECT_ID":"2021-044E","TIME_SYSTEM":"UTC","BSTAR":"-0.00003941400000","REV_AT_EPOCH":"1410","RA_OF_ASC_NODE":"355.8765","MEAN_MOTION":"15.06394235","CENTER_NAME":"EARTH","PERIAPSIS":"546.477","FILE":"3103480","GP_ID":"183498917","SITE":"AFETR","MEAN_ANOMALY":"245.6640","ARG_OF_PERICENTER":"114.4463","ECCENTRICITY":"0.00010890","NORAD_CAT_ID":"48642","MEAN_MOTION_DDOT":"0.0000000000000","ELEMENT_SET_NO":"999","EPOCH":"2021-08-26T15:28:57.978336","MEAN_MOTION_DOT":"-0.00000868","DECAY_DATE":null,"OBJECT_TYPE":"PAYLOAD","MEAN_ELEMENT_THEORY":"SGP4","TLE_LINE1":"1 48642U 21044E   21238.64511549 -.00000868  00000-0 -39414-4 0  9995","SEMIMAJOR_AXIS":"6925.366","LAUNCH_DATE":"2021-05-26","RCS_SIZE":"LARGE","REF_FRAME":"TEME","CLASSIFICATION_TYPE":"U","TLE_LINE2":"2 48642  53.0560 355.8765 0001089 114.4463 245.6640 15.06394235 14106","PERIOD":"95.593","EPHEMERIS_TYPE":"0","APOAPSIS":"547.985"},{"REV_AT_EPOCH":"1410","BSTAR":"0.00008985100000","TIME_SYSTEM":"UTC","OBJECT_ID":"2021-044F","COUNTRY_CODE":"US","INCLINATION":"53.0564","OBJECT_NAME":"STARLINK-2704","PERIAPSIS":"546.430","CENTER_NAME":"EARTH","MEAN_MOTION":"15.06403793","RA_OF_ASC_NODE":"355.9573","OBJECT_TYPE":"PAYLOAD","DECAY_DATE":null,"MEAN_MOTION_DOT":"0.00001057","EPOCH":"2021-08-26T15:03:46.639296","ELEMENT_SET_NO":"999","MEAN_MOTION_DDOT":"0.0000000000000","NORAD_CAT_ID":"48643","ECCENTRICITY":"0.00011150","ARG_OF_PERICENTER":"131.9498","GP_ID":"183498763","SITE":"AFETR","MEAN_ANOMALY":"228.1586","FILE":"3103480","APOAPSIS":"547.974","EPHEMERIS_TYPE":"0","PERIOD":"95.592","TLE_LINE2":"2 48643  53.0564 355.9573 0001115 131.9498 228.1586 15.06403793 14106","CLASSIFICATION_TYPE":"U","REF_FRAME":"TEME","RCS_SIZE":"LARGE","LAUNCH_DATE":"2021-05-26","SEMIMAJOR_AXIS":"6925.337","TLE_LINE1":"1 48643U 21044F   21238.62762314  .00001057  00000-0  89851-4 0  9991","MEAN_ELEMENT_THEORY":"SGP4"},{"OBJECT_NAME":"STARLINK-2695","INCLINATION":"53.0556","COUNTRY_CODE":"US","OBJECT_ID":"2021-044G","TIME_SYSTEM":"UTC","BSTAR":"-0.00000250030000","REV_AT_EPOCH":"1410","RA_OF_ASC_NODE":"355.9712","MEAN_MOTION":"15.06394373","CENTER_NAME":"EARTH","PERIAPSIS":"546.306","FILE":"3103480","GP_ID":"183498824","SITE":"AFETR","MEAN_ANOMALY":"240.1783","ARG_OF_PERICENTER":"119.9339","ECCENTRICITY":"0.00013360","NORAD_CAT_ID":"48644","ELEMENT_SET_NO":"999","MEAN_MOTION_DDOT":"0.0000000000000","EPOCH":"2021-08-26T14:58:29.413920","MEAN_MOTION_DOT":"-0.00000319","DECAY_DATE":null,"OBJECT_TYPE":"PAYLOAD","MEAN_ELEMENT_THEORY":"SGP4","TLE_LINE1":"1 48644U 21044G   21238.62395155 -.00000319  00000-0 -25003-5 0  9999","SEMIMAJOR_AXIS":"6925.366","LAUNCH_DATE":"2021-05-26","RCS_SIZE":"LARGE","REF_FRAME":"TEME","TLE_LINE2":"2 48644  53.0556 355.9712 0001336 119.9339 240.1783 15.06394373 14104","CLASSIFICATION_TYPE":"U","PERIOD":"95.592","EPHEMERIS_TYPE":"0","APOAPSIS":"548.156"},{"OBJECT_TYPE":"PAYLOAD","DECAY_DATE":null,"MEAN_MOTION_DOT":"0.00001315","EPOCH":"2021-08-26T14:53:10.130496","ELEMENT_SET_NO":"999","MEAN_MOTION_DDOT":"0.0000000000000","NORAD_CAT_ID":"48645","ARG_OF_PERICENTER":"129.3284","ECCENTRICITY":"0.00012600","FILE":"3103480","SITE":"AFETR","GP_ID":"183498670","MEAN_ANOMALY":"230.7817","EPHEMERIS_TYPE":"0","APOAPSIS":"548.105","PERIOD":"95.593","TLE_LINE2":"2 48645  53.0558 355.9894 0001260 129.3284 230.7817 15.06393973 14106","CLASSIFICATION_TYPE":"U","RCS_SIZE":"LARGE","REF_FRAME":"TEME","SEMIMAJOR_AXIS":"6925.367","LAUNCH_DATE":"2021-05-26","MEAN_ELEMENT_THEORY":"SGP4","TLE_LINE1":"1 48645U 21044H   21238.62025614  .00001315  00000-0  10714-3 0  9996","BSTAR":"0.00010714000000","REV_AT_EPOCH":"1410","TIME_SYSTEM":"UTC","OBJECT_ID":"2021-044H","COUNTRY_CODE":"US","INCLINATION":"53.0558","OBJECT_NAME":"STARLINK-2733","CENTER_NAME":"EARTH","PERIAPSIS":"546.359","MEAN_MOTION":"15.06393973","RA_OF_ASC_NODE":"355.9894"},{"RCS_SIZE":"LARGE","REF_FRAME":"TEME","CLASSIFICATION_TYPE":"U","TLE_LINE2":"2 48646  53.0561 356.0069 0001150 136.6023 223.5056 15.06404963 14104","PERIOD":"95.592","EPHEMERIS_TYPE":"0","APOAPSIS":"547.995","MEAN_ELEMENT_THEORY":"SGP4","TLE_LINE1":"1 48646U 21044J   21238.61656688  .00001383  00000-0  11168-3 0  9996","SEMIMAJOR_AXIS":"6925.333","LAUNCH_DATE":"2021-05-26","EPOCH":"2021-08-26T14:47:51.378432","MEAN_MOTION_DOT":"0.00001383","DECAY_DATE":null,"OBJECT_TYPE":"PAYLOAD","FILE":"3103480","GP_ID":"183498577","MEAN_ANOMALY":"223.5056","SITE":"AFETR","ARG_OF_PERICENTER":"136.6023","ECCENTRICITY":"0.00011500","NORAD_CAT_ID":"48646","MEAN_MOTION_DDOT":"0.0000000000000","ELEMENT_SET_NO":"999","MEAN_MOTION":"15.06404963","CENTER_NAME":"EARTH","PERIAPSIS":"546.402","RA_OF_ASC_NODE":"356.0069","OBJECT_ID":"2021-044J","TIME_SYSTEM":"UTC","BSTAR":"0.00011168000000","REV_AT_EPOCH":"1410","OBJECT_NAME":"STARLINK-2732","INCLINATION":"53.0561","COUNTRY_CODE":"US"},{"CENTER_NAME":"EARTH","PERIAPSIS":"546.285","MEAN_MOTION":"15.06397179","RA_OF_ASC_NODE":"356.0270","BSTAR":"0.00010827000000","REV_AT_EPOCH":"1410","TIME_SYSTEM":"UTC","OBJECT_ID":"2021-044K","COUNTRY_CODE":"US","INCLINATION":"53.0569","OBJECT_NAME":"STARLINK-2691","EPHEMERIS_TYPE":"0","APOAPSIS":"548.159","PERIOD":"95.592","TLE_LINE2":"2 48647  53.0569 356.0270 0001353 142.9986 217.1096 15.06397179 14103","CLASSIFICATION_TYPE":"U","RCS_SIZE":"LARGE","REF_FRAME":"TEME","SEMIMAJOR_AXIS":"6925.357","LAUNCH_DATE":"2021-05-26","TLE_LINE1":"1 48647U 21044K   21238.61288889  .00001331  00000-0  10827-3 0  9995","MEAN_ELEMENT_THEORY":"SGP4","OBJECT_TYPE":"PAYLOAD","DECAY_DATE":null,"MEAN_MOTION_DOT":"0.00001331","EPOCH":"2021-08-26T14:42:33.600096","ELEMENT_SET_NO":"999","MEAN_MOTION_DDOT":"0.0000000000000","NORAD_CAT_ID":"48647","ARG_OF_PERICENTER":"142.9986","ECCENTRICITY":"0.00013530","FILE":"3103480","MEAN_ANOMALY":"217.1096","GP_ID":"183499104","SITE":"AFETR"},{"INCLINATION":"53.0568","OBJECT_NAME":"STARLINK-2521","COUNTRY_CODE":"US","TIME_SYSTEM":"UTC","OBJECT_ID":"2021-044L","BSTAR":"-0.00000975130000","REV_AT_EPOCH":"1410","RA_OF_ASC_NODE":"356.0275","MEAN_MOTION":"15.06394918","CENTER_NAME":"EARTH","PERIAPSIS":"546.302","ARG_OF_PERICENTER":"126.7509","ECCENTRICITY":"0.00013390","FILE":"3103480","MEAN_ANOMALY":"233.3603","GP_ID":"183498484","SITE":"AFETR","MEAN_MOTION_DDOT":"0.0000000000000","ELEMENT_SET_NO":"999","NORAD_CAT_ID":"48648","MEAN_MOTION_DOT":"-0.00000427","EPOCH":"2021-08-26T14:41:11.863104","OBJECT_TYPE":"PAYLOAD","DECAY_DATE":null,"MEAN_ELEMENT_THEORY":"SGP4","TLE_LINE1":"1 48648U 21044L   21238.61194286 -.00000427  00000-0 -97513-5 0  9999","SEMIMAJOR_AXIS":"6925.364","LAUNCH_DATE":"2021-05-26","TLE_LINE2":"2 48648  53.0568 356.0275 0001339 126.7509 233.3603 15.06394918 14105","CLASSIFICATION_TYPE":"U","RCS_SIZE":"LARGE","REF_FRAME":"TEME","EPHEMERIS_TYPE":"0","APOAPSIS":"548.156","PERIOD":"95.592"},{"PERIAPSIS":"546.298","CENTER_NAME":"EARTH","MEAN_MOTION":"15.06406130","RA_OF_ASC_NODE":"356.0816","REV_AT_EPOCH":"1409","BSTAR":"0.00012213000000","OBJECT_ID":"2021-044M","TIME_SYSTEM":"UTC","COUNTRY_CODE":"US","OBJECT_NAME":"STARLINK-2673","INCLINATION":"53.0519","PERIOD":"95.592","APOAPSIS":"548.092","EPHEMERIS_TYPE":"0","REF_FRAME":"TEME","RCS_SIZE":"LARGE","CLASSIFICATION_TYPE":"U","TLE_LINE2":"2 48649  53.0519 356.0816 0001295 128.5605 231.5500 15.06406130 14095","LAUNCH_DATE":"2021-05-26","SEMIMAJOR_AXIS":"6925.330","MEAN_ELEMENT_THEORY":"SGP4","TLE_LINE1":"1 48649U 21044M   21238.60919421  .00001538  00000-0  12213-3 0  9999","DECAY_DATE":null,"OBJECT_TYPE":"PAYLOAD","EPOCH":"2021-08-26T14:37:14.379744","MEAN_MOTION_DOT":"0.00001538","NORAD_CAT_ID":"48649","ELEMENT_SET_NO":"999","MEAN_MOTION_DDOT":"0.0000000000000","GP_ID":"183499011","MEAN_ANOMALY":"231.5500","SITE":"AFETR","FILE":"3103480","ECCENTRICITY":"0.00012950","ARG_OF_PERICENTER":"128.5605"}];
